{"type": "FeatureCollection", "features": [ {"type": "Feature", "properties": {"norad_id": 37834, "name": "INTELSAT 18 (IS-18)", "group": "intelsat", "lat": 0.038513450315728226, "lon": 60.47116877017144, "alt_km": 35794.738719082496, "timestamp": "2025-12-08T10:52:02.617211+00:00", "meta": {"OBJECT_NAME": "INTELSAT 18 (IS-18)", "OBJECT_ID": "2011-056A", "EPOCH": "2025-12-07T19:24:14.679072", "MEAN_MOTION": 1.00270807, "ECCENTRICITY": 0.00021289, "INCLINATION": 0.0168, "RA_OF_ASC_NODE": 332.6003, "ARG_OF_PERICENTER": 288.5172, "MEAN_ANOMALY": 286.7673, "EPHEMERIS_TYPE": 0, "CLASSIFICATION_TYPE": "U", "NORAD_CAT_ID": 37834, "ELEMENT_SET_NO": 999, "REV_AT_EPOCH": 5189, "BSTAR": 0, "MEAN_MOTION_DOT": 5.6e-07, "MEAN_MOTION_DDOT": 0}, "tle": {"line1": "1 37834U 11056A   25341.80850323  .00000056  00000+0  00000+0 0  9991", "line2": "2 37834   0.0168 332.6003 0002128 288.5172 286.7673  1.00270807 51892"}}, "geometry": {"type": "Point", "coordinates": [60.47116877017144, 0.038513450315728226]}}, {"type": "Feature", "properties": {"norad_id": 38098, "name": "INTELSAT 22 (IS-22)", "group": "intelsat", "lat": -0.021262773806891077, "lon": -47.41246476748606, "alt_km": 35781.112546517514, "timestamp": "2025-12-08T10:52:02.617226+00:00", "meta": {"OBJECT_NAME": "INTELSAT 22 (IS-22)", "OBJECT_ID": "2012-011A", "EPOCH": "2025-12-07T21:55:38.755200", "MEAN_MOTION": 1.00271209, "ECCENTRICITY": 0.00017426, "INCLINATION": 0.0105, "RA_OF_ASC_NODE": 31.4111, "ARG_OF_PERICENTER": 235.2551, "MEAN_ANOMALY": 211.2821, "EPHEMERIS_TYPE": 0, "CLASSIFICATION_TYPE": "U", "NORAD_CAT_ID": 38098, "ELEMENT_SET_NO": 999, "REV_AT_EPOCH": 527, "BSTAR": 0, "MEAN_MOTION_DOT": -5.6e-07, "MEAN_MOTION_DDOT": 0}, "tle": {"line1": "1 38098U 12011A   25341.91364300 -.00000056  00000+0  00000+0 0  9994", "line2": "2 38098   0.0105  31.4111 0001742 235.2551 211.2821  1.00271209  5277"}}, "geometry": {"type": "Point", "coordinates": [-47.41246476748606, -0.021262773806891077]}}, {"type": "Feature", "properties": {"norad_id": 38356, "name": "INTELSAT 19 (IS-19)", "group": "intelsat", "lat": 0.03137037577025868, "lon": 46.499970964370185, "alt_km": 35798.17869865372, "timestamp": "2025-12-08T10:52:02.617238+00:00", "meta": {"OBJECT_NAME": "INTELSAT 19 (IS-19)", "OBJECT_ID": "2012-030A", "EPOCH": "2025-12-07T19:50:38.705568", "MEAN_MOTION": 1.00273111, "ECCENTRICITY": 0.00037038, "INCLINATION": 0.0116, "RA_OF_ASC_NODE": 322.0756, "ARG_OF_PERICENTER": 301.7218, "MEAN_ANOMALY": 276.7121, "EPHEMERIS_TYPE": 0, "CLASSIFICATION_TYPE": "U", "NORAD_CAT_ID": 38356, "ELEMENT_SET_NO": 999, "REV_AT_EPOCH": 4853, "BSTAR": 0, "MEAN_MOTION_DOT": -5.3e-07, "MEAN_MOTION_DDOT": 0}, "tle": {"line1": "1 38356U 12030A   25341.82683687 -.00000053  00000+0  00000+0 0  9991", "line2": "2 38356   0.0116 322.0756 0003703 301.7218 276.7121  1.00273111 48537"}}, "geometry": {"type": "Point", "coordinates": [46.499970964370185, 0.03137037577025868]}}, {"type": "Feature", "properties": {"norad_id": 38740, "name": "INTELSAT 20 (IS-20)", "group": "intelsat", "lat": -0.00031005795980085216, "lon": -51.03996592670133, "alt_km": 35799.265270253636, "timestamp": "2025-12-08T10:52:02.617251+00:00", "meta": {"OBJECT_NAME": "INTELSAT 20 (IS-20)", "OBJECT_ID": "2012-043A", "EPOCH": "2025-12-07T20:48:32.291424", "MEAN_MOTION": 1.00256173, "ECCENTRICITY": 0.00026391, "INCLINATION": 0.0039, "RA_OF_ASC_NODE": 83.3168, "ARG_OF_PERICENTER": 82.8308, "MEAN_ANOMALY": 291.3783, "EPHEMERIS_TYPE": 0, "CLASSIFICATION_TYPE": "U", "NORAD_CAT_ID": 38740, "ELEMENT_SET_NO": 999, "REV_AT_EPOCH": 4883, "BSTAR": 0, "MEAN_MOTION_DOT": -1.8e-07, "MEAN_MOTION_DDOT": 0}, "tle": {"line1": "1 38740U 12043A   25341.86704041 -.00000018  00000+0  00000+0 0  9995", "line2": "2 38740   0.0039  83.3168 0002639  82.8308 291.3783  1.00256173 48835"}}, "geometry": {"type": "Point", "coordinates": [-51.03996592670133, -0.00031005795980085216]}}, {"type": "Feature", "properties": {"norad_id": 38749, "name": "INTELSAT 21 (IS-21)", "group": "intelsat", "lat": -0.007215281050267239, "lon": -177.55466399696724, "alt_km": 35783.2615982705, "timestamp": "2025-12-08T10:52:02.617263+00:00", "meta": {"OBJECT_NAME": "INTELSAT 21 (IS-21)", "OBJECT_ID": "2012-045A", "EPOCH": "2025-12-07T21:55:09.568416", "MEAN_MOTION": 1.00270803, "ECCENTRICITY": 0.00022245, "INCLINATION": 0.0166, "RA_OF_ASC_NODE": 357.8548, "ARG_OF_PERICENTER": 254.9413, "MEAN_ANOMALY": 94.9277, "EPHEMERIS_TYPE": 0, "CLASSIFICATION_TYPE": "U", "NORAD_CAT_ID": 38749, "ELEMENT_SET_NO": 999, "REV_AT_EPOCH": 4860, "BSTAR": 0, "MEAN_MOTION_DOT": -2.82e-06, "MEAN_MOTION_DDOT": 0}, "tle": {"line1": "1 38749U 12045A   25341.91330519 -.00000282  00000+0  00000+0 0  9990", "line2": "2 38749   0.0166 357.8548 0002224 254.9413  94.9277  1.00270803 48601"}}, "geometry": {"type": "Point", "coordinates": [-177.55466399696724, -0.007215281050267239]}}, {"type": "Feature", "properties": {"norad_id": 38867, "name": "INTELSAT 23 (IS-23)", "group": "intelsat", "lat": 0.03319126118968057, "lon": -172.55421727589803, "alt_km": 35786.331269495975, "timestamp": "2025-12-08T10:52:02.617275+00:00", "meta": {"OBJECT_NAME": "INTELSAT 23 (IS-23)", "OBJECT_ID": "2012-057A", "EPOCH": "2025-12-07T21:56:31.936992", "MEAN_MOTION": 1.00271763, "ECCENTRICITY": 0.00014671, "INCLINATION": 0.0488, "RA_OF_ASC_NODE": 95.2077, "ARG_OF_PERICENTER": 184.12, "MEAN_ANOMALY": 73.7314, "EPHEMERIS_TYPE": 0, "CLASSIFICATION_TYPE": "U", "NORAD_CAT_ID": 38867, "ELEMENT_SET_NO": 999, "REV_AT_EPOCH": 4803, "BSTAR": 0, "MEAN_MOTION_DOT": -2.82e-06, "MEAN_MOTION_DDOT": 0}, "tle": {"line1": "1 38867U 12057A   25341.91425853 -.00000282  00000+0  00000+0 0  9990", "line2": "2 38867   0.0488  95.2077 0001467 184.1200  73.7314  1.00271763 48035"}}, "geometry": {"type": "Point", "coordinates": [-172.55421727589803, 0.03319126118968057]}}, {"type": "Feature", "properties": {"norad_id": 39360, "name": "FM-6", "group": "intelsat", "lat": 0.010263538083494278, "lon": 124.29858299770514, "alt_km": 35778.02347075918, "timestamp": "2025-12-08T10:52:02.617288+00:00", "meta": {"OBJECT_NAME": "FM-6", "OBJECT_ID": "2013-058A", "EPOCH": "2025-12-07T21:38:34.999008", "MEAN_MOTION": 1.00271197, "ECCENTRICITY": 0.00029413, "INCLINATION": 0.0023, "RA_OF_ASC_NODE": 49.0219, "ARG_OF_PERICENTER": 123.5891, "MEAN_ANOMALY": 112.8105, "EPHEMERIS_TYPE": 0, "CLASSIFICATION_TYPE": "U", "NORAD_CAT_ID": 39360, "ELEMENT_SET_NO": 999, "REV_AT_EPOCH": 4415, "BSTAR": 0, "MEAN_MOTION_DOT": -1.4e-07, "MEAN_MOTION_DDOT": 0}, "tle": {"line1": "1 39360U 13058A   25341.90179397 -.00000014  00000+0  00000+0 0  9992", "line2": "2 39360   0.0023  49.0219 0002941 123.5891 112.8105  1.00271197 44158"}}, "geometry": {"type": "Point", "coordinates": [124.29858299770514, 0.010263538083494278]}}, {"type": "Feature", "properties": {"norad_id": 40271, "name": "INTELSAT 30 (IS-30)", "group": "intelsat", "lat": 0.019447895043105706, "lon": 145.4161880193642, "alt_km": 35783.87884967776, "timestamp": "2025-12-08T10:52:02.617299+00:00", "meta": {"OBJECT_NAME": "INTELSAT 30 (IS-30)", "OBJECT_ID": "2014-062A", "EPOCH": "2025-12-07T21:44:34.424736", "MEAN_MOTION": 1.00269542, "ECCENTRICITY": 0.00011644, "INCLINATION": 0.0135, "RA_OF_ASC_NODE": 16.7904, "ARG_OF_PERICENTER": 74.0642, "MEAN_ANOMALY": 217.1536, "EPHEMERIS_TYPE": 0, "CLASSIFICATION_TYPE": "U", "NORAD_CAT_ID": 40271, "ELEMENT_SET_NO": 999, "REV_AT_EPOCH": 486, "BSTAR": 0, "MEAN_MOTION_DOT": -1.47e-06, "MEAN_MOTION_DDOT": 0}, "tle": {"line1": "1 40271U 14062A   25341.90595399 -.00000147  00000+0  00000+0 0  9992", "line2": "2 40271   0.0135  16.7904 0001164  74.0642 217.1536  1.00269542  4869"}}, "geometry": {"type": "Point", "coordinates": [145.4161880193642, 0.019447895043105706]}}, {"type": "Feature", "properties": {"norad_id": 40333, "name": "DIRECTV 14", "group": "intelsat", "lat": 0.012640772401685388, "lon": 141.24077486588024, "alt_km": 35785.71342100216, "timestamp": "2025-12-08T10:52:02.617311+00:00", "meta": {"OBJECT_NAME": "DIRECTV 14", "OBJECT_ID": "2014-078B", "EPOCH": "2025-12-07T21:43:27.031872", "MEAN_MOTION": 1.0027089, "ECCENTRICITY": 4.244e-05, "INCLINATION": 0.0166, "RA_OF_ASC_NODE": 339.618, "ARG_OF_PERICENTER": 230.6243, "MEAN_ANOMALY": 93.3218, "EPHEMERIS_TYPE": 0, "CLASSIFICATION_TYPE": "U", "NORAD_CAT_ID": 40333, "ELEMENT_SET_NO": 999, "REV_AT_EPOCH": 4012, "BSTAR": 0, "MEAN_MOTION_DOT": -1.22e-06, "MEAN_MOTION_DDOT": 0}, "tle": {"line1": "1 40333U 14078B   25341.90517398 -.00000122  00000+0  00000+0 0  9994", "line2": "2 40333   0.0166 339.6180 0000424 230.6243  93.3218  1.00270890 40128"}}, "geometry": {"type": "Point", "coordinates": [141.24077486588024, 0.012640772401685388]}}, {"type": "Feature", "properties": {"norad_id": 40663, "name": "DIRECTV 15", "group": "intelsat", "lat": 0.03531485510278359, "lon": 137.60104120573433, "alt_km": 35786.6758282474, "timestamp": "2025-12-08T10:52:02.617322+00:00", "meta": {"OBJECT_NAME": "DIRECTV 15", "OBJECT_ID": "2015-026A", "EPOCH": "2025-12-07T21:42:19.639872", "MEAN_MOTION": 1.00270298, "ECCENTRICITY": 4.055e-05, "INCLINATION": 0.0372, "RA_OF_ASC_NODE": 79.2583, "ARG_OF_PERICENTER": 153.9625, "MEAN_ANOMALY": 66.4231, "EPHEMERIS_TYPE": 0, "CLASSIFICATION_TYPE": "U", "NORAD_CAT_ID": 40663, "ELEMENT_SET_NO": 999, "REV_AT_EPOCH": 3854, "BSTAR": 0, "MEAN_MOTION_DOT": -9.9e-07, "MEAN_MOTION_DDOT": 0}, "tle": {"line1": "1 40663U 15026A   25341.90439398 -.00000099  00000+0  00000+0 0  9990", "line2": "2 40663   0.0372  79.2583 0000405 153.9625  66.4231  1.00270298 38548"}}, "geometry": {"type": "Point", "coordinates": [137.60104120573433, 0.03531485510278359]}}]}